SL-8 R/B                
1 19257U 88053B   26076.16540101  .00000268  00000+0  95376-4 0  9996
2 19257  74.0451  98.6853 0021534 276.9982 145.3337 14.38920585977671
COSMOS 1975             
1 19573U 88093A   26076.12425647  .00004627  00000+0  16695-3 0  9993
2 19573  82.5171 110.2205 0012790 138.7497 221.4711 15.28173282 20548
SL-14 R/B               
1 19574U 88093B   26076.12889076  .00000526  00000+0  57695-4 0  9994
2 19574  82.5320  35.0604 0021178  17.8827 352.9720 14.85665856  2125
SL-16 R/B               
1 19650U 88102B   26076.18031316  .00000042  00000+0  45292-4 0  9995
2 19650  70.9991 135.7369 0014481 349.8844  10.1986 14.16155890927957
INTERCOSMOS 24          
1 20261U 89080A   26076.11011546  .00000586  00000+0  17432-3 0  9994
2 20261  82.6018  99.5709 1186668 275.5791  71.1422 12.59568937667730
SL-14 R/B               
1 20262U 89080C   26075.99765894  .00000479  00000+0  13784-3 0  9999
2 20262  82.5969 168.4966 1230746 168.0517 195.2866 12.50502046661065
DELTA 1 R/B             
1 20323U 89089B   26076.27714782  .00000350  00000+0  94845-4 0  9994
2 20323  97.0700 282.5088 0070714  98.4504 262.4718 14.50669601896839
ARIANE 40 R/B           
1 20443U 90005H   26076.17957554  .00000243  00000+0  90909-4 0  9990
2 20443  98.3066 136.6173 0010313 175.6987 184.4292 14.39875475893884
DELTA 2 R/B(1)          
1 20453U 90008B   26075.49452640  .00055596  00000+0  63370-3 0  9996
2 20453  35.6034 130.1631 0082949 321.5693  37.9155 15.56890569927195
COSMOS 2058             
1 20465U 90010A   26075.99717432  .00003490  00000+0  20503-3 0  9997
2 20465  82.4667  40.2265 0008329 319.4031  40.6577 15.11388647943340
SL-14 R/B               
1 20466U 90010B   26076.03855971  .00000414  00000+0  47292-4 0  9993
2 20466  82.4987 260.4835 0018324 276.2285  83.6842 14.83575507929574
SL-14 R/B               
1 20511U 90018B   26076.13097156  .00000449  00000+0  53337-4 0  9991
2 20511  82.5216 216.1345 0017549  69.5819 290.7278 14.82152975923688
HST                     
1 20580U 90037B   26076.05470114  .00006491  00000+0  21207-3 0  9991
2 20580  28.4724 349.7537 0001684 201.5837 158.4688 15.29603902774440
SL-16 R/B               
1 20625U 90046B   26076.26122165  .00000045  00000+0  47714-4 0  9995
2 20625  70.9973 282.0121 0016160 289.5270  70.4107 14.15011233849466
COSMOS 2084             
1 20663U 90055A   26076.02743718  .00001858  00000+0  14159-3 0  9993
2 20663  62.7909 310.5517 0015893 192.0451 168.0271 15.05692999937427
SL-6 R/B(2)             
1 20666U 90055D   26076.15313694  .00001799  00000+0  14460-3 0  9995
2 20666  62.7822 228.4681 0025997 348.8451  11.2068 15.03632011939310
SL-8 R/B                
1 20775U 90078B   26076.16806457  .00011437  00000+0  33737-3 0  9994
2 20775  82.9000 244.5828 0360580 348.8252  10.5102 14.89314803810413
