[{"OBJECT_NAME":"SL-8 R/B","OBJECT_ID":"1988-053B","EPOCH":"2026-03-17T03:58:10.647264","MEAN_MOTION":14.38920585,"ECCENTRICITY":0.00215342,"INCLINATION":74.0451,"RA_OF_ASC_NODE":98.6853,"ARG_OF_PERICENTER":276.9982,"MEAN_ANOMALY":145.3337,"EPHEMERIS_TYPE":0,"CLASSIFICATION_TYPE":"U","NORAD_CAT_ID":19257,"ELEMENT_SET_NO":999,"REV_AT_EPOCH":97767,"BSTAR":9.5375802e-5,"MEAN_MOTION_DOT":2.68e-6,"MEAN_MOTION_DDOT":0},{"OBJECT_NAME":"COSMOS 1975","OBJECT_ID":"1988-093A","EPOCH":"2026-03-17T02:58:55.759008","MEAN_MOTION":15.28173282,"ECCENTRICITY":0.001279,"INCLINATION":82.5171,"RA_OF_ASC_NODE":110.2205,"ARG_OF_PERICENTER":138.7497,"MEAN_ANOMALY":221.4711,"EPHEMERIS_TYPE":0,"CLASSIFICATION_TYPE":"U","NORAD_CAT_ID":19573,"ELEMENT_SET_NO":999,"REV_AT_EPOCH":2054,"BSTAR":0.0001669456,"MEAN_MOTION_DOT":4.627e-5,"MEAN_MOTION_DDOT":0},{"OBJECT_NAME":"SL-14 R/B","OBJECT_ID":"1988-093B","EPOCH":"2026-03-17T03:05:36.161664","MEAN_MOTION":14.85665856,"ECCENTRICITY":0.0021178,"INCLINATION":82.532,"RA_OF_ASC_NODE":35.0604,"ARG_OF_PERICENTER":17.8827,"MEAN_ANOMALY":352.972,"EPHEMERIS_TYPE":0,"CLASSIFICATION_TYPE":"U","NORAD_CAT_ID":19574,"ELEMENT_SET_NO":999,"REV_AT_EPOCH":212,"BSTAR":5.7694654e-5,"MEAN_MOTION_DOT":5.26e-6,"MEAN_MOTION_DDOT":0},{"OBJECT_NAME":"SL-16 R/B","OBJECT_ID":"1988-102B","EPOCH":"2026-03-17T04:19:39.057024","MEAN_MOTION":14.1615589,"ECCENTRICITY":0.00144816,"INCLINATION":70.9991,"RA_OF_ASC_NODE":135.7369,"ARG_OF_PERICENTER":349.8844,"MEAN_ANOMALY":10.1986,"EPHEMERIS_TYPE":0,"CLASSIFICATION_TYPE":"U","NORAD_CAT_ID":19650,"ELEMENT_SET_NO":999,"REV_AT_EPOCH":92795,"BSTAR":4.5291931e-5,"MEAN_MOTION_DOT":4.2e-7,"MEAN_MOTION_DDOT":0},{"OBJECT_NAME":"INTERCOSMOS 24","OBJECT_ID":"1989-080A","EPOCH":"2026-03-17T02:38:33.975744","MEAN_MOTION":12.59568937,"ECCENTRICITY":0.11866681,"INCLINATION":82.6018,"RA_OF_ASC_NODE":99.5709,"ARG_OF_PERICENTER":275.5791,"MEAN_ANOMALY":71.1422,"EPHEMERIS_TYPE":0,"CLASSIFICATION_TYPE":"U","NORAD_CAT_ID":20261,"ELEMENT_SET_NO":999,"REV_AT_EPOCH":66773,"BSTAR":0.0001743202,"MEAN_MOTION_DOT":5.86e-6,"MEAN_MOTION_DDOT":0},{"OBJECT_NAME":"SL-14 R/B","OBJECT_ID":"1989-080C","EPOCH":"2026-03-16T23:56:37.732416","MEAN_MOTION":12.50502046,"ECCENTRICITY":0.12307467,"INCLINATION":82.5969,"RA_OF_ASC_NODE":168.4966,"ARG_OF_PERICENTER":168.0517,"MEAN_ANOMALY":195.2866,"EPHEMERIS_TYPE":0,"CLASSIFICATION_TYPE":"U","NORAD_CAT_ID":20262,"ELEMENT_SET_NO":999,"REV_AT_EPOCH":66106,"BSTAR":0.00013784424,"MEAN_MOTION_DOT":4.79e-6,"MEAN_MOTION_DDOT":0},{"OBJECT_NAME":"DELTA 1 R/B","OBJECT_ID":"1989-089B","EPOCH":"2026-03-17T06:39:05.571648","MEAN_MOTION":14.50669601,"ECCENTRICITY":0.00707148,"INCLINATION":97.07,"RA_OF_ASC_NODE":282.5088,"ARG_OF_PERICENTER":98.4504,"MEAN_ANOMALY":262.4718,"EPHEMERIS_TYPE":0,"CLASSIFICATION_TYPE":"U","NORAD_CAT_ID":20323,"ELEMENT_SET_NO":999,"REV_AT_EPOCH":89683,"BSTAR":9.4845323e-5,"MEAN_MOTION_DOT":3.5e-6,"MEAN_MOTION_DDOT":0},{"OBJECT_NAME":"ARIANE 40 R/B","OBJECT_ID":"1990-005H","EPOCH":"2026-03-17T04:18:35.326656","MEAN_MOTION":14.39875475,"ECCENTRICITY":0.00103138,"INCLINATION":98.3066,"RA_OF_ASC_NODE":136.6173,"ARG_OF_PERICENTER":175.6987,"MEAN_ANOMALY":184.4292,"EPHEMERIS_TYPE":0,"CLASSIFICATION_TYPE":"U","NORAD_CAT_ID":20443,"ELEMENT_SET_NO":999,"REV_AT_EPOCH":89388,"BSTAR":9.0909412e-5,"MEAN_MOTION_DOT":2.43e-6,"MEAN_MOTION_DDOT":0},{"OBJECT_NAME":"DELTA 2 R/B(1)","OBJECT_ID":"1990-008B","EPOCH":"2026-03-16T11:52:07.080960","MEAN_MOTION":15.56890569,"ECCENTRICITY":0.00829492,"INCLINATION":35.6034,"RA_OF_ASC_NODE":130.1631,"ARG_OF_PERICENTER":321.5693,"MEAN_ANOMALY":37.9155,"EPHEMERIS_TYPE":0,"CLASSIFICATION_TYPE":"U","NORAD_CAT_ID":20453,"ELEMENT_SET_NO":999,"REV_AT_EPOCH":92719,"BSTAR":0.00063370257,"MEAN_MOTION_DOT":0.00055596,"MEAN_MOTION_DDOT":0},{"OBJECT_NAME":"COSMOS 2058","OBJECT_ID":"1990-010A","EPOCH":"2026-03-16T23:55:55.861248","MEAN_MOTION":15.11388647,"ECCENTRICITY":0.0008329,"INCLINATION":82.4667,"RA_OF_ASC_NODE":40.2265,"ARG_OF_PERICENTER":319.4031,"MEAN_ANOMALY":40.6577,"EPHEMERIS_TYPE":0,"CLASSIFICATION_TYPE":"U","NORAD_CAT_ID":20465,"ELEMENT_SET_NO":999,"REV_AT_EPOCH":94334,"BSTAR":0.00020502558,"MEAN_MOTION_DOT":3.49e-5,"MEAN_MOTION_DDOT":0},{"OBJECT_NAME":"SL-14 R/B","OBJECT_ID":"1990-010B","EPOCH":"2026-03-17T00:55:31.558944","MEAN_MOTION":14.83575507,"ECCENTRICITY":0.00183249,"INCLINATION":82.4987,"RA_OF_ASC_NODE":260.4835,"ARG_OF_PERICENTER":276.2285,"MEAN_ANOMALY":83.6842,"EPHEMERIS_TYPE":0,"CLASSIFICATION_TYPE":"U","NORAD_CAT_ID":20466,"ELEMENT_SET_NO":999,"REV_AT_EPOCH":92957,"BSTAR":4.7292094e-5,"MEAN_MOTION_DOT":4.14e-6,"MEAN_MOTION_DDOT":0},{"OBJECT_NAME":"SL-14 R/B","OBJECT_ID":"1990-018B","EPOCH":"2026-03-17T03:08:35.942784","MEAN_MOTION":14.82152975,"ECCENTRICITY":0.00175492,"INCLINATION":82.5216,"RA_OF_ASC_NODE":216.1345,"ARG_OF_PERICENTER":69.5819,"MEAN_ANOMALY":290.7278,"EPHEMERIS_TYPE":0,"CLASSIFICATION_TYPE":"U","NORAD_CAT_ID":20511,"ELEMENT_SET_NO":999,"REV_AT_EPOCH":92368,"BSTAR":5.3336771e-5,"MEAN_MOTION_DOT":4.49e-6,"MEAN_MOTION_DDOT":0},{"OBJECT_NAME":"HST","OBJECT_ID":"1990-037B","EPOCH":"2026-03-17T01:18:46.178496","MEAN_MOTION":15.29603902,"ECCENTRICITY":0.00016841,"INCLINATION":28.4724,"RA_OF_ASC_NODE":349.7537,"ARG_OF_PERICENTER":201.5837,"MEAN_ANOMALY":158.4688,"EPHEMERIS_TYPE":0,"CLASSIFICATION_TYPE":"U","NORAD_CAT_ID":20580,"ELEMENT_SET_NO":999,"REV_AT_EPOCH":77444,"BSTAR":0.00021207405,"MEAN_MOTION_DOT":6.491e-5,"MEAN_MOTION_DDOT":0},{"OBJECT_NAME":"SL-16 R/B","OBJECT_ID":"1990-046B","EPOCH":"2026-03-17T06:16:09.550560","MEAN_MOTION":14.15011233,"ECCENTRICITY":0.00161603,"INCLINATION":70.9973,"RA_OF_ASC_NODE":282.0121,"ARG_OF_PERICENTER":289.527,"MEAN_ANOMALY":70.4107,"EPHEMERIS_TYPE":0,"CLASSIFICATION_TYPE":"U","NORAD_CAT_ID":20625,"ELEMENT_SET_NO":999,"REV_AT_EPOCH":84946,"BSTAR":4.7714246e-5,"MEAN_MOTION_DOT":4.5e-7,"MEAN_MOTION_DDOT":0},{"OBJECT_NAME":"COSMOS 2084","OBJECT_ID":"1990-055A","EPOCH":"2026-03-17T00:39:30.572352","MEAN_MOTION":15.05692999,"ECCENTRICITY":0.00158935,"INCLINATION":62.7909,"RA_OF_ASC_NODE":310.5517,"ARG_OF_PERICENTER":192.0451,"MEAN_ANOMALY":168.0271,"EPHEMERIS_TYPE":0,"CLASSIFICATION_TYPE":"U","NORAD_CAT_ID":20663,"ELEMENT_SET_NO":999,"REV_AT_EPOCH":93742,"BSTAR":0.00014158889,"MEAN_MOTION_DOT":1.858e-5,"MEAN_MOTION_DDOT":0},{"OBJECT_NAME":"SL-6 R/B(2)","OBJECT_ID":"1990-055D","EPOCH":"2026-03-17T03:40:31.031616","MEAN_MOTION":15.03632011,"ECCENTRICITY":0.00259977,"INCLINATION":62.7822,"RA_OF_ASC_NODE":228.4681,"ARG_OF_PERICENTER":348.8451,"MEAN_ANOMALY":11.2068,"EPHEMERIS_TYPE":0,"CLASSIFICATION_TYPE":"U","NORAD_CAT_ID":20666,"ELEMENT_SET_NO":999,"REV_AT_EPOCH":93931,"BSTAR":0.00014459831,"MEAN_MOTION_DOT":1.799e-5,"MEAN_MOTION_DDOT":0},{"OBJECT_NAME":"SL-8 R/B","OBJECT_ID":"1990-078B","EPOCH":"2026-03-17T04:02:00.778848","MEAN_MOTION":14.89314803,"ECCENTRICITY":0.03605805,"INCLINATION":82.9,"RA_OF_ASC_NODE":244.5828,"ARG_OF_PERICENTER":348.8252,"MEAN_ANOMALY":10.5102,"EPHEMERIS_TYPE":0,"CLASSIFICATION_TYPE":"U","NORAD_CAT_ID":20775,"ELEMENT_SET_NO":999,"REV_AT_EPOCH":81041,"BSTAR":0.00033737268,"MEAN_MOTION_DOT":0.00011437,"MEAN_MOTION_DDOT":0}]
